{"type":"FeatureCollection", "features": [
{"type":"Feature","geometry":{"type":"Polygon","coordinates":[[[-85.0739,40.9178],[-85.0703,40.7431],[-85.0685,40.5682],[-84.8025,40.5722],[-84.8029,40.9226],[-85.0739,40.9178]]]},"properties":{"GEOID":"18001","NAME":"Adams","ASD_CODE":"1830","ASD_NAME":"Northeast","SLUG":"adams"}},
{"type":"Feature","geometry":{"type":"Polygon","coordinates":[[[-85.3078,41.2642],[-85.3098,41.1789],[-85.3383,41.1791],[-85.3356,41.0052],[-85.336,40.9171],[-85.0739,40.9178],[-84.8029,40.9226],[-84.8036,41.2709],[-85.0778,41.2656],[-85.1921,41.2642],[-85.3078,41.2642]]]},"properties":{"GEOID":"18003","NAME":"Allen","ASD_CODE":"1830","ASD_NAME":"Northeast","SLUG":"allen"}},
{"type":"Feature","geometry":{"type":"Polygon","coordinates":[[[-86.0856,39.3442],[-86.0818,39.2263],[-86.079,39.0796],[-86.0803,39.0503],[-86.0798,39.0359],[-85.8606,39.0409],[-85.8474,39.0595],[-85.8229,39.0697],[-85.7988,39.0685],[-85.7998,39.1289],[-85.6868,39.1309],[-85.6867,39.2614],[-85.6845,39.35],[-85.7988,39.3502],[-85.952,39.3474],[-86.0856,39.3442]]]},"properties":{"GEOID":"18005","NAME":"Bartholomew","ASD_CODE":"1850","ASD_NAME":"Central","SLUG":"bartholomew"}},
{"type":"Feature","geometry":{"type":"Polygon","coordinates":[[[-87.526,40.7369],[-87.5266,40.4769],[-87.2069,40.4757],[-87.0937,40.4757],[-87.0954,40.5629],[-87.0984,40.7365],[-87.2673,40.7366],[-87.526,40.7369]]]},"properties":{"GEOID":"18007","NAME":"Benton","ASD_CODE":"1810","ASD_NAME":"Northwest","SLUG":"benton"}},
{"type":"Feature","geometry":{"type":"Polygon","coordinates":[[[-85.447,40.5669],[-85.4443,40.3791],[-85.2199,40.379],[-85.2068,40.3792],[-85.2065,40.4794],[-85.2009,40.4795],[-85.2011,40.5672],[-85.447,40.5669]]]},"properties":{"GEOID":"18009","NAME":"Blackford","ASD_CODE":"1860","ASD_NAME":"East Central","SLUG":"blackford"}},
{"type":"Feature","geometry":{"type":"Polygon","coordinates":[[[-86.6958,40.1787],[-86.6951,39.9228],[-86.4687,39.9228],[-86.3263,39.924],[-86.2407,39.9261],[-86.2424,40.1808],[-86.4318,40.177],[-86.6958,40.1787]]]},"properties":{"GEOID":"18011","NAME":"Boone","ASD_CODE":"1850","ASD_NAME":"Central","SLUG":"boone"}},
{"type":"Feature","geometry":{"type":"Polygon","coordinates":[[[-86.3814,39.3398],[-86.3799,39.2511],[-86.3724,39.2509],[-86.3691,39.0896],[-86.3701,39.0484],[-86.3181,39.0488],[-86.1724,39.0486],[-86.0803,39.0503],[-86.079,39.0796],[-86.0818,39.2263],[-86.0856,39.3442],[-86.2517,39.3417],[-86.3814,39.3398]]]},"properties":{"GEOID":"18013","NAME":"Brown","ASD_CODE":"1880","ASD_NAME":"South Central","SLUG":"brown"}},
{"type":"Feature","geometry":{"type":"Polygon","coordinates":[[[-86.5817,40.7358],[-86.7478,40.7375],[-86.7475,40.718],[-86.7614,40.6979],[-86.7583,40.6643],[-86.7742,40.664],[-86.7713,40.5621],[-86.6954,40.5619],[-86.6947,40.4322],[-86.4685,40.431],[-86.3758,40.4319],[-86.3744,40.5614],[-86.3735,40.6925],[-86.5252,40.6924],[-86.5251,40.7354],[-86.5817,40.7358]]]},"properties":{"GEOID":"18015","NAME":"Carroll","ASD_CODE":"1820","ASD_NAME":"North Central","SLUG":"carroll"}},
{"type":"Feature","geometry":{"type":"Polygon","coordinates":[[[-86.5815,40.9109],[-86.5817,40.7358],[-86.5251,40.7354],[-86.5252,40.6924],[-86.3735,40.6925],[-86.3744,40.5614],[-86.165,40.5626],[-86.1689,40.7435],[-86.169,40.9098],[-86.2424,40.9091],[-86.4685,40.9099],[-86.5815,40.9109]]]},"properties":{"GEOID":"18017","NAME":"Cass","ASD_CODE":"1820","ASD_NAME":"North Central","SLUG":"cass"}},
{"type":"Feature","geometry":{"type":"Polygon","coordinates":[[[-85.8479,38.5613],[-85.8663,38.5471],[-85.8663,38.5184],[-85.8848,38.5035],[-85.9571,38.5019],[-85.9562,38.489],[-85.9933,38.4885],[-85.9946,38.4183],[-85.9667,38.4037],[-85.8077,38.4043],[-85.7611,38.3504],[-85.7815,38.3419],[-85.7941,38.3248],[-85.7911,38.2878],[-85.7409,38.2679],[-85.6836,38.2955],[-85.6554,38.3238],[-85.6387,38.3639],[-85.6329,38.3957],[-85.6183,38.4264],[-85.586,38.4501],[-85.5248,38.4576],[-85.4989,38.4682],[-85.4669,38.5108],[-85.4224,38.5329],[-85.4158,38.5636],[-85.4286,38.5864],[-85.4788,38.5862],[-85.4967,38.6067],[-85.57,38.6062],[-85.7936,38.6048],[-85.8215,38.5754],[-85.8212,38.5614],[-85.8479,38.5613]]]},"properties":{"GEOID":"18019","NAME":"Clark","ASD_CODE":"1890","ASD_NAME":"Southeast","SLUG":"clark"}},
{"type":"Feature","geometry":{"type":"Polygon","coordinates":[[[-87.2404,39.2591],[-87.2407,39.1718],[-87.0546,39.1681],[-87.0536,39.3426],[-86.9425,39.342],[-86.94,39.4733],[-87.0145,39.4736],[-87.0131,39.6048],[-87.199,39.6071],[-87.2001,39.5199],[-87.239,39.5206],[-87.2404,39.2591]]]},"properties":{"GEOID":"18021","NAME":"Clay","ASD_CODE":"1840","ASD_NAME":"West Central","SLUG":"clay"}},
{"type":"Feature","geometry":{"type":"Polygon","coordinates":[[[-86.6956,40.2144],[-86.6958,40.1787],[-86.4318,40.177],[-86.2424,40.1808],[-86.2427,40.2158],[-86.243,40.3737],[-86.2808,40.3737],[-86.2808,40.3883],[-86.3093,40.3884],[-86.3092,40.4317],[-86.3758,40.4319],[-86.4685,40.431],[-86.6947,40.4322],[-86.6956,40.2144]]]},"properties":{"GEOID":"18023","NAME":"Clinton","ASD_CODE":"1850","ASD_NAME":"Central","SLUG":"clinton"}},
{"type":"Feature","geometry":{"type":"Polygon","coordinates":[[[-86.6814,38.3948],[-86.6795,38.2631],[-86.5701,38.2663],[-86.5717,38.2075],[-86.4604,38.2068],[-86.461,38.1212],[-86.4295,38.1253],[-86.4051,38.1058],[-86.3753,38.1306],[-86.3406,38.1277],[-86.328,38.1548],[-86.3661,38.1615],[-86.3774,38.1714],[-86.3738,38.1934],[-86.3577,38.1988],[-86.3297,38.1817],[-86.295,38.2037],[-86.277,38.2271],[-86.2748,38.28],[-86.265,38.2959],[-86.2764,38.3403],[-86.2517,38.4061],[-86.255,38.4227],[-86.3087,38.4229],[-86.3089,38.3941],[-86.4517,38.3965],[-86.6814,38.3948]]]},"properties":{"GEOID":"18025","NAME":"Crawford","ASD_CODE":"1880","ASD_NAME":"South Central","SLUG":"crawford"}},
{"type":"Feature","geometry":{"type":"Polygon","coordinates":[[[-87.0988,38.904],[-87.1358,38.872],[-87.1406,38.8435],[-87.1704,38.8469],[-87.1779,38.8302],[-87.2186,38.8191],[-87.2399,38.8193],[-87.2429,38.7792],[-87.2578,38.7686],[-87.2448,38.7485],[-87.2628,38.7303],[-87.267,38.7007],[-87.253,38.6315],[-87.2418,38.6198],[-87.2473,38.5831],[-87.2378,38.5757],[-87.2421,38.5449],[-87.2209,38.5388],[-87.2071,38.5517],[-87.1755,38.544],[-87.1354,38.5192],[-87.1077,38.5377],[-87.0724,38.5147],[-87.0254,38.5074],[-86.994,38.513],[-86.9748,38.502],[-86.9398,38.495],[-86.9242,38.5054],[-86.9229,38.8172],[-86.9042,38.8175],[-86.9043,38.9042],[-87.0174,38.9026],[-87.0988,38.904]]]},"properties":{"GEOID":"18027","NAME":"Daviess","ASD_CODE":"1870","ASD_NAME":"Southwest","SLUG":"daviess"}},
{"type":"Feature","geometry":{"type":"Polygon","coordinates":[[[-85.1325,38.9481],[-85.0975,38.9355],[-85.0843,38.9511],[-85.0582,38.9581],[-85.0415,38.9754],[-85.0066,38.9779],[-84.9975,38.9968],[-84.9539,38.9949],[-84.943,39.008],[-84.9121,39.0189],[-84.8977,39.0134],[-84.8774,39.0316],[-84.8967,39.0533],[-84.8889,39.0664],[-84.8607,39.0781],[-84.8202,39.1055],[-84.8195,39.3052],[-85.0656,39.3072],[-85.1325,38.9481]]]},"properties":{"GEOID":"18029","NAME":"Dearborn","ASD_CODE":"1890","ASD_NAME":"Southeast","SLUG":"dearborn"}},
{"type":"Feature","geometry":{"type":"Polygon","coordinates":[[[-85.6845,39.35],[-85.6867,39.2614],[-85.6868,39.1309],[-85.5663,39.1328],[-85.4401,39.1956],[-85.2965,39.2683],[-85.2976,39.4533],[-85.6293,39.4528],[-85.6306,39.3502],[-85.6845,39.35]]]},"properties":{"GEOID":"18031","NAME":"Decatur","ASD_CODE":"1850","ASD_NAME":"Central","SLUG":"decatur"}},
{"type":"Feature","geometry":{"type":"Polygon","coordinates":[[[-85.1941,41.5264],[-85.1921,41.2642],[-85.0778,41.2656],[-84.8036,41.2709],[-84.8047,41.5301],[-85.0069,41.5275],[-85.1941,41.5264]]]},"properties":{"GEOID":"18033","NAME":"DeKalb","ASD_CODE":"1830","ASD_NAME":"Northeast","SLUG":"dekalb"}},
{"type":"Feature","geometry":{"type":"Polygon","coordinates":[[[-85.5786,40.3795],[-85.5759,40.2482],[-85.5762,40.0771],[-85.3848,40.0764],[-85.2144,40.0769],[-85.2188,40.3067],[-85.2199,40.379],[-85.4443,40.3791],[-85.5786,40.3795]]]},"properties":{"GEOID":"18035","NAME":"Delaware","ASD_CODE":"1860","ASD_NAME":"East Central","SLUG":"delaware"}},
{"type":"Feature","geometry":{"type":"Polygon","coordinates":[[[-87.0724,38.5147],[-87.0731,38.2326],[-87.0731,38.2038],[-87.0175,38.2036],[-86.9425,38.2029],[-86.7915,38.2051],[-86.7922,38.2491],[-86.679,38.2481],[-86.6795,38.2631],[-86.6814,38.3948],[-86.6824,38.5264],[-86.8375,38.5265],[-86.8442,38.5152],[-86.8789,38.4949],[-86.9242,38.5054],[-86.9398,38.495],[-86.9748,38.502],[-86.994,38.513],[-87.0254,38.5074],[-87.0724,38.5147]]]},"properties":{"GEOID":"18037","NAME":"Dubois","ASD_CODE":"1870","ASD_NAME":"Southwest","SLUG":"dubois"}},
{"type":"Feature","geometry":{"type":"Polygon","coordinates":[[[-86.0626,41.7605],[-86.0595,41.4792],[-86.0592,41.4358],[-85.8516,41.4349],[-85.6535,41.4369],[-85.6547,41.5233],[-85.6598,41.7591],[-85.7914,41.7591],[-86.0626,41.7605]]]},"properties":{"GEOID":"18039","NAME":"Elkhart","ASD_CODE":"1820","ASD_NAME":"North Central","SLUG":"elkhart"}},
{"type":"Feature","geometry":{"type":"Polygon","coordinates":[[[-85.3016,39.7876],[-85.2981,39.5255],[-85.0361,39.5262],[-85.0346,39.7148],[-85.1851,39.7155],[-85.1835,39.7884],[-85.2211,39.7884],[-85.3016,39.7876]]]},"properties":{"GEOID":"18041","NAME":"Fayette","ASD_CODE":"1860","ASD_NAME":"East Central","SLUG":"fayette"}},
{"type":"Feature","geometry":{"type":"Polygon","coordinates":[[[-86.0328,38.4179],[-86.0326,38.3308],[-86.0143,38.3306],[-86.0142,38.3018],[-85.9954,38.3018],[-85.9924,38.2728],[-85.9738,38.2581],[-85.9552,38.2577],[-85.958,38.1859],[-85.8995,38.1804],[-85.8803,38.2034],[-85.8524,38.2219],[-85.8391,38.2397],[-85.8362,38.2653],[-85.8174,38.2824],[-85.7911,38.2878],[-85.7941,38.3248],[-85.7815,38.3419],[-85.7611,38.3504],[-85.8077,38.4043],[-85.9667,38.4037],[-85.9946,38.4183],[-86.0328,38.4179]]]},"properties":{"GEOID":"18043","NAME":"Floyd","ASD_CODE":"1880","ASD_NAME":"South Central","SLUG":"floyd"}},
{"type":"Feature","geometry":{"type":"Polygon","coordinates":[[[-87.4067,40.1275],[-87.4174,40.0587],[-87.4349,40.0264],[-87.4305,39.971],[-87.4202,39.9525],[-87.091,39.953],[-87.0926,40.2148],[-87.0921,40.3666],[-87.1315,40.3406],[-87.1701,40.3348],[-87.2449,40.3093],[-87.2814,40.2784],[-87.2964,40.2555],[-87.3584,40.2105],[-87.4199,40.1923],[-87.4388,40.1657],[-87.4073,40.1422],[-87.4067,40.1275]]]},"properties":{"GEOID":"18045","NAME":"Fountain","ASD_CODE":"1840","ASD_NAME":"West Central","SLUG":"fountain"}},
{"type":"Feature","geometry":{"type":"Polygon","coordinates":[[[-85.2981,39.5255],[-85.2976,39.4533],[-85.2965,39.2683],[-85.2179,39.3085],[-85.1327,39.3104],[-85.0656,39.3072],[-84.8195,39.3052],[-84.8154,39.522],[-85.0361,39.5262],[-85.2981,39.5255]]]},"properties":{"GEOID":"18047","NAME":"Franklin","ASD_CODE":"1890","ASD_NAME":"Southeast","SLUG":"franklin"}},
{"type":"Feature","geometry":{"type":"Polygon","coordinates":[[[-86.4685,40.9099],[-86.2424,40.9091],[-86.169,40.9098],[-86.1685,40.9961],[-85.9464,40.9992],[-85.9456,41.0429],[-86.0187,41.0419],[-86.0184,41.0861],[-86.0759,41.0849],[-86.0776,41.1729],[-86.467,41.1714],[-86.4685,40.9099]]]},"properties":{"GEOID":"18049","NAME":"Fulton","ASD_CODE":"1820","ASD_NAME":"North Central","SLUG":"fulton"}},
{"type":"Feature","geometry":{"type":"Polygon","coordinates":[[[-87.7437,38.4144],[-87.7831,38.3689],[-87.8061,38.3631],[-87.832,38.327],[-87.831,38.2994],[-87.8434,38.2782],[-87.8878,38.2853],[-87.9068,38.2696],[-87.9336,38.2959],[-87.9503,38.2768],[-87.9602,38.2371],[-87.9837,38.2304],[-87.7992,38.2286],[-87.7997,38.2019],[-87.6882,38.201],[-87.6884,38.1684],[-87.4673,38.1654],[-87.4667,38.2013],[-87.317,38.2018],[-87.3169,38.2461],[-87.316,38.3753],[-87.3482,38.3862],[-87.4076,38.3755],[-87.4073,38.4363],[-87.4445,38.4361],[-87.4445,38.4655],[-87.4625,38.4657],[-87.4629,38.5335],[-87.4738,38.5128],[-87.5402,38.4928],[-87.5739,38.4912],[-87.5996,38.4506],[-87.6735,38.4465],[-87.7001,38.4219],[-87.7437,38.4144]]]},"properties":{"GEOID":"18051","NAME":"Gibson","ASD_CODE":"1870","ASD_NAME":"Southwest","SLUG":"gibson"}},
{"type":"Feature","geometry":{"type":"Polygon","coordinates":[[[-85.8648,40.6517],[-85.8636,40.5655],[-85.8621,40.4069],[-85.8623,40.3784],[-85.5786,40.3795],[-85.4443,40.3791],[-85.447,40.5669],[-85.4488,40.6536],[-85.6386,40.6531],[-85.8648,40.6517]]]},"properties":{"GEOID":"18053","NAME":"Grant","ASD_CODE":"1850","ASD_NAME":"Central","SLUG":"grant"}},
{"type":"Feature","geometry":{"type":"Polygon","coordinates":[[[-87.2407,39.1718],[-87.241,38.9079],[-87.1299,38.9073],[-87.0988,38.904],[-87.0174,38.9026],[-86.9043,38.9042],[-86.6829,38.9047],[-86.6823,38.9924],[-86.683,39.1657],[-86.8931,39.1679],[-87.0546,39.1681],[-87.2407,39.1718]]]},"properties":{"GEOID":"18055","NAME":"Greene","ASD_CODE":"1870","ASD_NAME":"Southwest","SLUG":"greene"}},
{"type":"Feature","geometry":{"type":"Polygon","coordinates":[[[-86.2427,40.2158],[-86.2424,40.1808],[-86.2407,39.9261],[-85.9376,39.9271],[-85.8624,39.9289],[-85.8625,39.9436],[-85.8636,40.133],[-85.8619,40.2189],[-86.2427,40.2158]]]},"properties":{"GEOID":"18057","NAME":"Hamilton","ASD_CODE":"1850","ASD_NAME":"Central","SLUG":"hamilton"}},
{"type":"Feature","geometry":{"type":"Polygon","coordinates":[[[-85.9376,39.9271],[-85.9381,39.8698],[-85.954,39.8696],[-85.9517,39.6971],[-85.7681,39.6991],[-85.6332,39.6985],[-85.6335,39.7862],[-85.5969,39.7865],[-85.5967,39.8729],[-85.5768,39.8728],[-85.5762,39.9458],[-85.8625,39.9436],[-85.8624,39.9289],[-85.9376,39.9271]]]},"properties":{"GEOID":"18059","NAME":"Hancock","ASD_CODE":"1850","ASD_NAME":"Central","SLUG":"hancock"}},
{"type":"Feature","geometry":{"type":"Polygon","coordinates":[[[-86.255,38.4227],[-86.2517,38.4061],[-86.2764,38.3403],[-86.265,38.2959],[-86.2748,38.28],[-86.277,38.2271],[-86.295,38.2037],[-86.3297,38.1817],[-86.2871,38.1579],[-86.2703,38.1298],[-86.2791,38.1008],[-86.2672,38.0568],[-86.2207,38.0282],[-86.1766,38.0102],[-86.1283,38.0162],[-86.0794,38.0006],[-86.05,37.9605],[-86.0344,37.9646],[-86.0256,37.9945],[-85.9471,38.0051],[-85.9257,38.0218],[-85.9053,38.0889],[-85.908,38.1615],[-85.8995,38.1804],[-85.958,38.1859],[-85.9552,38.2577],[-85.9738,38.2581],[-85.9924,38.2728],[-85.9954,38.3018],[-86.0142,38.3018],[-86.0143,38.3306],[-86.0326,38.3308],[-86.0328,38.4179],[-86.255,38.4227]]]},"properties":{"GEOID":"18061","NAME":"Harrison","ASD_CODE":"1880","ASD_NAME":"South Central","SLUG":"harrison"}},
{"type":"Feature","geometry":{"type":"Polygon","coordinates":[[[-86.6951,39.9228],[-86.6951,39.8648],[-86.6868,39.8648],[-86.6874,39.6304],[-86.6417,39.63],[-86.6566,39.6014],[-86.4656,39.6008],[-86.4659,39.63],[-86.3263,39.6322],[-86.3281,39.8661],[-86.3263,39.924],[-86.4687,39.9228],[-86.6951,39.9228]]]},"properties":{"GEOID":"18063","NAME":"Hendricks","ASD_CODE":"1850","ASD_NAME":"Central","SLUG":"hendricks"}},
{"type":"Feature","geometry":{"type":"Polygon","coordinates":[[[-85.5762,39.9458],[-85.5768,39.8728],[-85.5967,39.8729],[-85.5969,39.7865],[-85.3016,39.7876],[-85.2211,39.7884],[-85.2207,39.8736],[-85.2009,39.8738],[-85.2015,40.0045],[-85.2135,40.0044],[-85.2144,40.0769],[-85.3848,40.0764],[-85.5762,40.0771],[-85.5762,39.9458]]]},"properties":{"GEOID":"18065","NAME":"Henry","ASD_CODE":"1860","ASD_NAME":"East Central","SLUG":"henry"}},
{"type":"Feature","geometry":{"type":"Polygon","coordinates":[[[-86.3744,40.5614],[-86.3758,40.4319],[-86.3092,40.4317],[-86.3093,40.3884],[-86.2808,40.3883],[-86.2808,40.3737],[-86.243,40.3737],[-86.2428,40.4029],[-85.8621,40.4069],[-85.8636,40.5655],[-86.165,40.5626],[-86.3744,40.5614]]]},"properties":{"GEOID":"18067","NAME":"Howard","ASD_CODE":"1850","ASD_NAME":"Central","SLUG":"howard"}},
{"type":"Feature","geometry":{"type":"Polygon","coordinates":[[[-85.6438,41.0023],[-85.6386,40.6531],[-85.4488,40.6536],[-85.3347,40.6544],[-85.336,40.9171],[-85.3356,41.0052],[-85.4521,41.0052],[-85.6438,41.0023]]]},"properties":{"GEOID":"18069","NAME":"Huntington","ASD_CODE":"1830","ASD_NAME":"Northeast","SLUG":"huntington"}},
{"type":"Feature","geometry":{"type":"Polygon","coordinates":[[[-86.3181,39.0488],[-86.3175,38.9909],[-86.2804,38.991],[-86.2753,38.7638],[-86.2432,38.7656],[-86.2241,38.7791],[-86.1855,38.7829],[-86.1349,38.7624],[-86.0602,38.7771],[-86.0406,38.7609],[-85.9978,38.7609],[-85.9766,38.7524],[-85.9609,38.7642],[-85.8883,38.7344],[-85.8665,38.7293],[-85.8416,38.7411],[-85.8304,38.7626],[-85.7954,38.8075],[-85.7988,39.0685],[-85.8229,39.0697],[-85.8474,39.0595],[-85.8606,39.0409],[-86.0798,39.0359],[-86.0803,39.0503],[-86.1724,39.0486],[-86.3181,39.0488]]]},"properties":{"GEOID":"18071","NAME":"Jackson","ASD_CODE":"1880","ASD_NAME":"South Central","SLUG":"jackson"}},
{"type":"Feature","geometry":{"type":"Polygon","coordinates":[[[-87.2759,41.2186],[-87.2764,40.9115],[-87.269,40.9115],[-87.2673,40.7366],[-87.0984,40.7365],[-87.0998,40.8376],[-86.9864,40.8379],[-86.9874,40.9122],[-86.9308,40.9124],[-86.9302,41.1723],[-86.9301,41.2368],[-86.9681,41.2197],[-87.0597,41.2695],[-87.1313,41.2862],[-87.1925,41.2652],[-87.2189,41.242],[-87.2759,41.2186]]]},"properties":{"GEOID":"18073","NAME":"Jasper","ASD_CODE":"1810","ASD_NAME":"Northwest","SLUG":"jasper"}},
{"type":"Feature","geometry":{"type":"Polygon","coordinates":[[[-85.2199,40.379],[-85.2188,40.3067],[-84.8037,40.3101],[-84.8041,40.413],[-84.8025,40.5722],[-85.0685,40.5682],[-85.2011,40.5672],[-85.2009,40.4795],[-85.2065,40.4794],[-85.2068,40.3792],[-85.2199,40.379]]]},"properties":{"GEOID":"18075","NAME":"Jay","ASD_CODE":"1860","ASD_NAME":"East Central","SLUG":"jay"}},
{"type":"Feature","geometry":{"type":"Polygon","coordinates":[[[-85.4449,38.913],[-85.5382,38.9122],[-85.5374,38.8828],[-85.5738,38.8827],[-85.5738,38.8537],[-85.611,38.8538],[-85.6106,38.8242],[-85.6841,38.8239],[-85.6838,38.8154],[-85.6833,38.7367],[-85.6462,38.7299],[-85.6458,38.708],[-85.6087,38.7079],[-85.6082,38.6787],[-85.5709,38.6785],[-85.57,38.6062],[-85.4967,38.6067],[-85.4788,38.5862],[-85.4286,38.5864],[-85.4397,38.6115],[-85.4387,38.6593],[-85.4555,38.6821],[-85.4524,38.7082],[-85.4363,38.7285],[-85.4102,38.7371],[-85.3723,38.7305],[-85.3053,38.7415],[-85.2685,38.7402],[-85.2465,38.7318],[-85.2262,38.7059],[-85.2015,38.6911],[-85.2035,38.797],[-85.2032,38.9138],[-85.4449,38.913]]]},"properties":{"GEOID":"18077","NAME":"Jefferson","ASD_CODE":"1890","ASD_NAME":"Southeast","SLUG":"jefferson"}},
{"type":"Feature","geometry":{"type":"Polygon","coordinates":[[[-85.6868,39.1309],[-85.7998,39.1289],[-85.7988,39.0685],[-85.7954,38.8075],[-85.7727,38.8096],[-85.7475,38.8223],[-85.6838,38.8154],[-85.6841,38.8239],[-85.6106,38.8242],[-85.611,38.8538],[-85.5738,38.8537],[-85.5738,38.8827],[-85.5374,38.8828],[-85.5382,38.9122],[-85.4449,38.913],[-85.4447,39.0007],[-85.4401,39.1956],[-85.5663,39.1328],[-85.6868,39.1309]]]},"properties":{"GEOID":"18079","NAME":"Jennings","ASD_CODE":"1890","ASD_NAME":"Southeast","SLUG":"jennings"}},
{"type":"Feature","geometry":{"type":"Polygon","coordinates":[[[-86.2499,39.6336],[-86.2517,39.3417],[-86.0856,39.3442],[-85.952,39.3474],[-85.9508,39.4952],[-85.9521,39.6383],[-86.2499,39.6336]]]},"properties":{"GEOID":"18081","NAME":"Johnson","ASD_CODE":"1850","ASD_NAME":"Central","SLUG":"johnson"}},
{"type":"Feature","geometry":{"type":"Polygon","coordinates":[[[-87.5225,38.9024],[-87.5443,38.889],[-87.5426,38.8666],[-87.5259,38.8488],[-87.5273,38.8181],[-87.4959,38.7854],[-87.5053,38.735],[-87.5312,38.684],[-87.5972,38.6653],[-87.6273,38.6054],[-87.6229,38.5862],[-87.6692,38.5417],[-87.6453,38.5102],[-87.6724,38.5074],[-87.6859,38.4918],[-87.714,38.4799],[-87.7446,38.4773],[-87.7559,38.4559],[-87.732,38.4508],[-87.7437,38.4144],[-87.7001,38.4219],[-87.6735,38.4465],[-87.5996,38.4506],[-87.5739,38.4912],[-87.5402,38.4928],[-87.4738,38.5128],[-87.4629,38.5335],[-87.4113,38.5265],[-87.4032,38.5414],[-87.3509,38.5416],[-87.3023,38.5104],[-87.2559,38.5266],[-87.2421,38.5449],[-87.2378,38.5757],[-87.2473,38.5831],[-87.2418,38.6198],[-87.253,38.6315],[-87.267,38.7007],[-87.2628,38.7303],[-87.2448,38.7485],[-87.2578,38.7686],[-87.2429,38.7792],[-87.2399,38.8193],[-87.2186,38.8191],[-87.1779,38.8302],[-87.1704,38.8469],[-87.1406,38.8435],[-87.1358,38.872],[-87.0988,38.904],[-87.1299,38.9073],[-87.241,38.9079],[-87.2411,38.9016],[-87.5225,38.9024]]]},"properties":{"GEOID":"18083","NAME":"Knox","ASD_CODE":"1870","ASD_NAME":"Southwest","SLUG":"knox"}},
{"type":"Feature","geometry":{"type":"Polygon","coordinates":[[[-86.0776,41.1729],[-86.0759,41.0849],[-86.0184,41.0861],[-86.0187,41.0419],[-85.9456,41.0429],[-85.7958,41.0436],[-85.6842,41.0467],[-85.6866,41.1784],[-85.6527,41.1785],[-85.6519,41.2948],[-85.6535,41.4369],[-85.8516,41.4349],[-86.0592,41.4358],[-86.0583,41.3467],[-86.054,41.1731],[-86.0776,41.1729]]]},"properties":{"GEOID":"18085","NAME":"Kosciusko","ASD_CODE":"1820","ASD_NAME":"North Central","SLUG":"kosciusko"}},
{"type":"Feature","geometry":{"type":"Polygon","coordinates":[[[-85.6598,41.7591],[-85.6547,41.5233],[-85.5584,41.5247],[-85.1941,41.5264],[-85.1968,41.7597],[-85.6598,41.7591]]]},"properties":{"GEOID":"18087","NAME":"LaGrange","ASD_CODE":"1830","ASD_NAME":"Northeast","SLUG":"lagrange"}},
{"type":"Feature","geometry":{"type":"Polygon","coordinates":[[[-87.2226,41.6242],[-87.2888,41.6208],[-87.3689,41.63],[-87.4115,41.6437],[-87.4212,41.6595],[-87.4079,41.6803],[-87.4249,41.6901],[-87.4763,41.6752],[-87.5242,41.7083],[-87.5267,41.2982],[-87.5266,41.1661],[-87.4414,41.1731],[-87.4143,41.1622],[-87.3246,41.1862],[-87.2759,41.2186],[-87.2189,41.242],[-87.2203,41.3333],[-87.2202,41.5071],[-87.2226,41.6242]]]},"properties":{"GEOID":"18089","NAME":"Lake","ASD_CODE":"1810","ASD_NAME":"Northwest","SLUG":"lake"}},
{"type":"Feature","geometry":{"type":"Polygon","coordinates":[[[-86.9327,41.7095],[-86.9299,41.5361],[-86.9301,41.2368],[-86.8703,41.2646],[-86.8147,41.2735],[-86.7835,41.2855],[-86.74,41.3217],[-86.7238,41.3604],[-86.7,41.4026],[-86.6425,41.4326],[-86.5247,41.4329],[-86.5249,41.5197],[-86.5036,41.5195],[-86.4982,41.5611],[-86.4864,41.5705],[-86.4876,41.6493],[-86.5267,41.6504],[-86.5242,41.7595],[-86.8248,41.7602],[-86.9091,41.7269],[-86.9327,41.7095]]]},"properties":{"GEOID":"18091","NAME":"LaPorte","ASD_CODE":"1810","ASD_NAME":"Northwest","SLUG":"laporte"}},
{"type":"Feature","geometry":{"type":"Polygon","coordinates":[[[-86.6829,38.9047],[-86.6831,38.6866],[-86.4601,38.6887],[-86.3087,38.6881],[-86.3096,38.7307],[-86.2921,38.7351],[-86.2753,38.7638],[-86.2804,38.991],[-86.3175,38.9909],[-86.6823,38.9924],[-86.6829,38.9047]]]},"properties":{"GEOID":"18093","NAME":"Lawrence","ASD_CODE":"1880","ASD_NAME":"South Central","SLUG":"lawrence"}},
{"type":"Feature","geometry":{"type":"Polygon","coordinates":[[[-85.8619,40.2189],[-85.8636,40.133],[-85.8625,39.9436],[-85.5762,39.9458],[-85.5762,40.0771],[-85.5759,40.2482],[-85.5786,40.3795],[-85.8623,40.3784],[-85.8602,40.3057],[-85.8619,40.2189]]]},"properties":{"GEOID":"18095","NAME":"Madison","ASD_CODE":"1850","ASD_NAME":"Central","SLUG":"madison"}},
{"type":"Feature","geometry":{"type":"Polygon","coordinates":[[[-86.3263,39.924],[-86.3281,39.8661],[-86.3263,39.6322],[-86.2499,39.6336],[-85.9521,39.6383],[-85.9517,39.6971],[-85.954,39.8696],[-85.9381,39.8698],[-85.9376,39.9271],[-86.2407,39.9261],[-86.3263,39.924]]]},"properties":{"GEOID":"18097","NAME":"Marion","ASD_CODE":"1850","ASD_NAME":"Central","SLUG":"marion"}},
{"type":"Feature","geometry":{"type":"Polygon","coordinates":[[[-86.0595,41.4792],[-86.2863,41.4787],[-86.4671,41.4765],[-86.4666,41.433],[-86.467,41.1714],[-86.0776,41.1729],[-86.054,41.1731],[-86.0583,41.3467],[-86.0592,41.4358],[-86.0595,41.4792]]]},"properties":{"GEOID":"18099","NAME":"Marshall","ASD_CODE":"1820","ASD_NAME":"North Central","SLUG":"marshall"}},
{"type":"Feature","geometry":{"type":"Polygon","coordinates":[[[-86.9043,38.9042],[-86.9042,38.8175],[-86.9229,38.8172],[-86.9242,38.5054],[-86.8789,38.4949],[-86.8442,38.5152],[-86.8375,38.5265],[-86.6824,38.5264],[-86.6831,38.6866],[-86.6829,38.9047],[-86.9043,38.9042]]]},"properties":{"GEOID":"18101","NAME":"Martin","ASD_CODE":"1870","ASD_NAME":"Southwest","SLUG":"martin"}},
{"type":"Feature","geometry":{"type":"Polygon","coordinates":[[[-85.9464,40.9992],[-86.1685,40.9961],[-86.169,40.9098],[-86.1689,40.7435],[-86.165,40.5626],[-85.8636,40.5655],[-85.8648,40.6517],[-85.9395,40.651],[-85.9423,40.8235],[-85.9464,40.9992]]]},"properties":{"GEOID":"18103","NAME":"Miami","ASD_CODE":"1820","ASD_NAME":"North Central","SLUG":"miami"}},
{"type":"Feature","geometry":{"type":"Polygon","coordinates":[[[-86.6308,39.3469],[-86.6495,39.3555],[-86.6677,39.3295],[-86.6856,39.336],[-86.683,39.1657],[-86.6823,38.9924],[-86.3175,38.9909],[-86.3181,39.0488],[-86.3701,39.0484],[-86.3691,39.0896],[-86.3724,39.2509],[-86.3799,39.2511],[-86.3814,39.3398],[-86.4651,39.3383],[-86.6308,39.3408],[-86.6308,39.3469]]]},"properties":{"GEOID":"18105","NAME":"Monroe","ASD_CODE":"1880","ASD_NAME":"South Central","SLUG":"monroe"}},
{"type":"Feature","geometry":{"type":"Polygon","coordinates":[[[-87.0926,40.2148],[-87.091,39.953],[-87.0915,39.8673],[-87.0095,39.8667],[-86.6951,39.8648],[-86.6951,39.9228],[-86.6958,40.1787],[-86.6956,40.2144],[-87.0926,40.2148]]]},"properties":{"GEOID":"18107","NAME":"Montgomery","ASD_CODE":"1840","ASD_NAME":"West Central","SLUG":"montgomery"}},
{"type":"Feature","geometry":{"type":"Polygon","coordinates":[[[-86.6566,39.6014],[-86.6596,39.5792],[-86.6513,39.552],[-86.6876,39.5219],[-86.6857,39.4701],[-86.6322,39.4702],[-86.6308,39.3469],[-86.6308,39.3408],[-86.4651,39.3383],[-86.3814,39.3398],[-86.2517,39.3417],[-86.2499,39.6336],[-86.3263,39.6322],[-86.4659,39.63],[-86.4656,39.6008],[-86.6566,39.6014]]]},"properties":{"GEOID":"18109","NAME":"Morgan","ASD_CODE":"1850","ASD_NAME":"Central","SLUG":"morgan"}},
{"type":"Feature","geometry":{"type":"Polygon","coordinates":[[[-87.5266,41.1661],[-87.5258,40.8536],[-87.526,40.7369],[-87.2673,40.7366],[-87.269,40.9115],[-87.2764,40.9115],[-87.2759,41.2186],[-87.3246,41.1862],[-87.4143,41.1622],[-87.4414,41.1731],[-87.5266,41.1661]]]},"properties":{"GEOID":"18111","NAME":"Newton","ASD_CODE":"1810","ASD_NAME":"Northwest","SLUG":"newton"}},
{"type":"Feature","geometry":{"type":"Polygon","coordinates":[[[-85.6547,41.5233],[-85.6535,41.4369],[-85.6519,41.2948],[-85.5363,41.2952],[-85.5372,41.2662],[-85.3078,41.2642],[-85.1921,41.2642],[-85.1941,41.5264],[-85.5584,41.5247],[-85.6547,41.5233]]]},"properties":{"GEOID":"18113","NAME":"Noble","ASD_CODE":"1830","ASD_NAME":"Northeast","SLUG":"noble"}},
{"type":"Feature","geometry":{"type":"Polygon","coordinates":[[[-85.1358,38.9296],[-85.1403,38.9032],[-84.9311,38.901],[-84.8712,38.9017],[-84.8708,38.9292],[-84.8352,38.958],[-84.8371,38.9881],[-84.8774,39.0316],[-84.8977,39.0134],[-84.9121,39.0189],[-84.943,39.008],[-84.9539,38.9949],[-84.9975,38.9968],[-85.0066,38.9779],[-85.0415,38.9754],[-85.0582,38.9581],[-85.0843,38.9511],[-85.0975,38.9355],[-85.1325,38.9481],[-85.1358,38.9296]]]},"properties":{"GEOID":"18115","NAME":"Ohio","ASD_CODE":"1890","ASD_NAME":"Southeast","SLUG":"ohio"}},
{"type":"Feature","geometry":{"type":"Polygon","coordinates":[[[-86.6831,38.6866],[-86.6824,38.5264],[-86.6814,38.3948],[-86.4517,38.3965],[-86.3089,38.3941],[-86.3087,38.4229],[-86.3078,38.6716],[-86.3087,38.6881],[-86.4601,38.6887],[-86.6831,38.6866]]]},"properties":{"GEOID":"18117","NAME":"Orange","ASD_CODE":"1880","ASD_NAME":"South Central","SLUG":"orange"}},
{"type":"Feature","geometry":{"type":"Polygon","coordinates":[[[-86.94,39.4733],[-86.9425,39.342],[-87.0536,39.3426],[-87.0546,39.1681],[-86.8931,39.1679],[-86.683,39.1657],[-86.6856,39.336],[-86.6677,39.3295],[-86.6495,39.3555],[-86.6308,39.3469],[-86.6322,39.4702],[-86.6857,39.4701],[-86.94,39.4733]]]},"properties":{"GEOID":"18119","NAME":"Owen","ASD_CODE":"1840","ASD_NAME":"West Central","SLUG":"owen"}},
{"type":"Feature","geometry":{"type":"Polygon","coordinates":[[[-87.4202,39.9525],[-87.4337,39.9352],[-87.405,39.9109],[-87.3799,39.904],[-87.3689,39.8905],[-87.3769,39.8735],[-87.3561,39.8647],[-87.3664,39.8429],[-87.3855,39.8334],[-87.3746,39.7924],[-87.3772,39.7461],[-87.3844,39.7186],[-87.3815,39.6934],[-87.3943,39.6587],[-87.3824,39.6079],[-87.199,39.6071],[-87.0131,39.6048],[-87.0095,39.8667],[-87.0915,39.8673],[-87.091,39.953],[-87.4202,39.9525]]]},"properties":{"GEOID":"18121","NAME":"Parke","ASD_CODE":"1840","ASD_NAME":"West Central","SLUG":"parke"}},
{"type":"Feature","geometry":{"type":"Polygon","coordinates":[[[-86.7915,38.2051],[-86.7913,38.1801],[-86.8004,38.1396],[-86.7878,38.1047],[-86.7681,38.1001],[-86.7808,38.0784],[-86.7674,38.0569],[-86.7788,38.0501],[-86.7723,37.9983],[-86.8135,37.9982],[-86.7955,37.9895],[-86.7799,37.9555],[-86.751,37.9129],[-86.7185,37.8931],[-86.686,37.9131],[-86.6501,37.9106],[-86.6448,37.8948],[-86.6625,37.857],[-86.6383,37.8427],[-86.5981,37.8674],[-86.5998,37.9068],[-86.5886,37.9212],[-86.5342,37.917],[-86.507,37.9364],[-86.5252,37.9682],[-86.525,38.0279],[-86.5173,38.0426],[-86.4522,38.0505],[-86.4328,38.0672],[-86.434,38.0868],[-86.4588,38.096],[-86.461,38.1212],[-86.4604,38.2068],[-86.5717,38.2075],[-86.5701,38.2663],[-86.6795,38.2631],[-86.679,38.2481],[-86.7922,38.2491],[-86.7915,38.2051]]]},"properties":{"GEOID":"18123","NAME":"Perry","ASD_CODE":"1880","ASD_NAME":"South Central","SLUG":"perry"}},
{"type":"Feature","geometry":{"type":"Polygon","coordinates":[[[-87.4629,38.5335],[-87.4625,38.4657],[-87.4445,38.4655],[-87.4445,38.4361],[-87.4073,38.4363],[-87.4076,38.3755],[-87.3482,38.3862],[-87.316,38.3753],[-87.3169,38.2461],[-87.2984,38.2317],[-87.2329,38.2309],[-87.0731,38.2326],[-87.0724,38.5147],[-87.1077,38.5377],[-87.1354,38.5192],[-87.1755,38.544],[-87.2071,38.5517],[-87.2209,38.5388],[-87.2421,38.5449],[-87.2559,38.5266],[-87.3023,38.5104],[-87.3509,38.5416],[-87.4032,38.5414],[-87.4113,38.5265],[-87.4629,38.5335]]]},"properties":{"GEOID":"18125","NAME":"Pike","ASD_CODE":"1870","ASD_NAME":"Southwest","SLUG":"pike"}},
{"type":"Feature","geometry":{"type":"Polygon","coordinates":[[[-87.2226,41.6242],[-87.2202,41.5071],[-87.2203,41.3333],[-87.2189,41.242],[-87.1925,41.2652],[-87.1313,41.2862],[-87.0597,41.2695],[-86.9681,41.2197],[-86.9301,41.2368],[-86.9299,41.5361],[-86.9327,41.7095],[-87.0279,41.6747],[-87.099,41.6518],[-87.1581,41.6416],[-87.1621,41.6354],[-87.2226,41.6242]]]},"properties":{"GEOID":"18127","NAME":"Porter","ASD_CODE":"1810","ASD_NAME":"Northwest","SLUG":"porter"}},
{"type":"Feature","geometry":{"type":"Polygon","coordinates":[[[-87.9837,38.2304],[-87.984,38.2091],[-87.9699,38.1918],[-87.9405,38.1749],[-87.9106,38.1666],[-87.9455,38.1266],[-87.9695,38.1307],[-87.9753,38.1101],[-88.0167,38.0973],[-88.0047,38.084],[-87.9605,38.0991],[-87.9672,38.0671],[-88.0013,38.0515],[-88.0326,38.0517],[-88.0341,38.032],[-88.0169,38.024],[-88.0258,38.0072],[-88.0126,37.9771],[-88.0368,37.9568],[-88.0304,37.9301],[-88.0134,37.8949],[-88.0554,37.8912],[-88.0862,37.9057],[-88.095,37.8937],[-88.0785,37.8791],[-88.0594,37.8487],[-88.0333,37.8419],[-88.033,37.8244],[-88.0581,37.8224],[-88.0857,37.8294],[-88.09,37.8168],[-88.0597,37.8012],[-88.0376,37.8099],[-87.9445,37.7753],[-87.9349,37.7952],[-87.9068,37.8076],[-87.9149,37.8496],[-87.9362,37.8679],[-87.9384,37.8908],[-87.9048,37.9249],[-87.8725,37.921],[-87.8298,37.8764],[-87.7864,37.8766],[-87.7626,37.8907],[-87.7007,37.8978],[-87.6968,38.1248],[-87.6884,38.1684],[-87.6882,38.201],[-87.7997,38.2019],[-87.7992,38.2286],[-87.9837,38.2304]]]},"properties":{"GEOID":"18129","NAME":"Posey","ASD_CODE":"1870","ASD_NAME":"Southwest","SLUG":"posey"}},
{"type":"Feature","geometry":{"type":"Polygon","coordinates":[[[-86.9302,41.1723],[-86.9308,40.9124],[-86.6967,40.9122],[-86.5815,40.9109],[-86.4685,40.9099],[-86.467,41.1714],[-86.9302,41.1723]]]},"properties":{"GEOID":"18131","NAME":"Pulaski","ASD_CODE":"1810","ASD_NAME":"Northwest","SLUG":"pulaski"}},
{"type":"Feature","geometry":{"type":"Polygon","coordinates":[[[-87.0131,39.6048],[-87.0145,39.4736],[-86.94,39.4733],[-86.6857,39.4701],[-86.6876,39.5219],[-86.6513,39.552],[-86.6596,39.5792],[-86.6566,39.6014],[-86.6417,39.63],[-86.6874,39.6304],[-86.6868,39.8648],[-86.6951,39.8648],[-87.0095,39.8667],[-87.0131,39.6048]]]},"properties":{"GEOID":"18133","NAME":"Putnam","ASD_CODE":"1840","ASD_NAME":"West Central","SLUG":"putnam"}},
{"type":"Feature","geometry":{"type":"Polygon","coordinates":[[[-85.2188,40.3067],[-85.2144,40.0769],[-85.2135,40.0044],[-85.2015,40.0045],[-85.1268,40.0042],[-84.8928,40.0064],[-84.8109,40.0051],[-84.8037,40.3101],[-85.2188,40.3067]]]},"properties":{"GEOID":"18135","NAME":"Randolph","ASD_CODE":"1860","ASD_NAME":"East Central","SLUG":"randolph"}},
{"type":"Feature","geometry":{"type":"Polygon","coordinates":[[[-85.4401,39.1956],[-85.4447,39.0007],[-85.4449,38.913],[-85.2032,38.9138],[-85.2028,38.9285],[-85.1358,38.9296],[-85.1325,38.9481],[-85.0656,39.3072],[-85.1327,39.3104],[-85.2179,39.3085],[-85.2965,39.2683],[-85.4401,39.1956]]]},"properties":{"GEOID":"18137","NAME":"Ripley","ASD_CODE":"1890","ASD_NAME":"Southeast","SLUG":"ripley"}},
{"type":"Feature","geometry":{"type":"Polygon","coordinates":[[[-85.5969,39.7865],[-85.6335,39.7862],[-85.6332,39.6985],[-85.6293,39.4528],[-85.2976,39.4533],[-85.2981,39.5255],[-85.3016,39.7876],[-85.5969,39.7865]]]},"properties":{"GEOID":"18139","NAME":"Rush","ASD_CODE":"1850","ASD_NAME":"Central","SLUG":"rush"}},
{"type":"Feature","geometry":{"type":"Polygon","coordinates":[[[-86.5242,41.7595],[-86.5267,41.6504],[-86.4876,41.6493],[-86.4864,41.5705],[-86.4982,41.5611],[-86.5036,41.5195],[-86.5249,41.5197],[-86.5247,41.4329],[-86.4666,41.433],[-86.4671,41.4765],[-86.2863,41.4787],[-86.0595,41.4792],[-86.0626,41.7605],[-86.5242,41.7595]]]},"properties":{"GEOID":"18141","NAME":"St. Joseph","ASD_CODE":"1820","ASD_NAME":"North Central","SLUG":"st_joseph"}},
{"type":"Feature","geometry":{"type":"Polygon","coordinates":[[[-85.8883,38.7344],[-85.8856,38.5754],[-85.8486,38.5763],[-85.8479,38.5613],[-85.8212,38.5614],[-85.8215,38.5754],[-85.7936,38.6048],[-85.57,38.6062],[-85.5709,38.6785],[-85.6082,38.6787],[-85.6087,38.7079],[-85.6458,38.708],[-85.6462,38.7299],[-85.6833,38.7367],[-85.6838,38.8154],[-85.7475,38.8223],[-85.7727,38.8096],[-85.7954,38.8075],[-85.8304,38.7626],[-85.8416,38.7411],[-85.8665,38.7293],[-85.8883,38.7344]]]},"properties":{"GEOID":"18143","NAME":"Scott","ASD_CODE":"1890","ASD_NAME":"Southeast","SLUG":"scott"}},
{"type":"Feature","geometry":{"type":"Polygon","coordinates":[[[-85.9521,39.6383],[-85.9508,39.4952],[-85.952,39.3474],[-85.7988,39.3502],[-85.6845,39.35],[-85.6306,39.3502],[-85.6293,39.4528],[-85.6332,39.6985],[-85.7681,39.6991],[-85.9517,39.6971],[-85.9521,39.6383]]]},"properties":{"GEOID":"18145","NAME":"Shelby","ASD_CODE":"1850","ASD_NAME":"Central","SLUG":"shelby"}},
{"type":"Feature","geometry":{"type":"Polygon","coordinates":[[[-87.0175,38.2036],[-87.0175,38.1183],[-87.0703,38.1181],[-87.0752,38.0964],[-87.0979,38.0593],[-87.1243,38.0439],[-87.1479,38.059],[-87.1528,38.0236],[-87.1685,38.0185],[-87.1858,37.9965],[-87.2257,37.9717],[-87.2679,37.9252],[-87.269,37.878],[-87.2203,37.8491],[-87.1647,37.8414],[-87.1415,37.8163],[-87.1296,37.7866],[-87.096,37.7853],[-87.0697,37.8015],[-87.0433,37.8686],[-87.0452,37.8943],[-87.0124,37.9187],[-86.979,37.9302],[-86.9258,37.9351],[-86.902,37.9464],[-86.856,37.9873],[-86.8135,37.9982],[-86.7723,37.9983],[-86.7788,38.0501],[-86.7674,38.0569],[-86.7808,38.0784],[-86.7681,38.1001],[-86.7878,38.1047],[-86.8004,38.1396],[-86.7913,38.1801],[-86.7915,38.2051],[-86.9425,38.2029],[-87.0175,38.2036]]]},"properties":{"GEOID":"18147","NAME":"Spencer","ASD_CODE":"1870","ASD_NAME":"Southwest","SLUG":"spencer"}},
{"type":"Feature","geometry":{"type":"Polygon","coordinates":[[[-86.9301,41.2368],[-86.9302,41.1723],[-86.467,41.1714],[-86.4666,41.433],[-86.5247,41.4329],[-86.6425,41.4326],[-86.7,41.4026],[-86.7238,41.3604],[-86.74,41.3217],[-86.7835,41.2855],[-86.8147,41.2735],[-86.8703,41.2646],[-86.9301,41.2368]]]},"properties":{"GEOID":"18149","NAME":"Starke","ASD_CODE":"1810","ASD_NAME":"Northwest","SLUG":"starke"}},
{"type":"Feature","geometry":{"type":"Polygon","coordinates":[[[-84.8047,41.5301],[-84.8059,41.7602],[-84.9728,41.7594],[-85.1968,41.7597],[-85.1941,41.5264],[-85.0069,41.5275],[-84.8047,41.5301]]]},"properties":{"GEOID":"18151","NAME":"Steuben","ASD_CODE":"1830","ASD_NAME":"Northeast","SLUG":"steuben"}},
{"type":"Feature","geometry":{"type":"Polygon","coordinates":[[[-87.6041,39.2595],[-87.5807,39.2552],[-87.5746,39.2184],[-87.5866,39.1996],[-87.6194,39.1721],[-87.6365,39.1688],[-87.6587,39.136],[-87.6431,39.1286],[-87.6528,39.1068],[-87.6184,39.1043],[-87.6011,39.0814],[-87.5726,39.0573],[-87.5802,39.0419],[-87.5699,39.0231],[-87.5765,38.9867],[-87.5295,38.9719],[-87.5133,38.956],[-87.5261,38.9214],[-87.5225,38.9024],[-87.2411,38.9016],[-87.241,38.9079],[-87.2407,39.1718],[-87.2404,39.2591],[-87.6041,39.2595]]]},"properties":{"GEOID":"18153","NAME":"Sullivan","ASD_CODE":"1870","ASD_NAME":"Southwest","SLUG":"sullivan"}},
{"type":"Feature","geometry":{"type":"Polygon","coordinates":[[[-85.2032,38.9138],[-85.2035,38.797],[-85.2015,38.6911],[-85.173,38.688],[-85.1367,38.7002],[-85.0719,38.7416],[-84.9919,38.7785],[-84.933,38.7775],[-84.8873,38.7948],[-84.8378,38.7849],[-84.8116,38.7928],[-84.8271,38.8186],[-84.8234,38.8392],[-84.7883,38.8643],[-84.8002,38.8911],[-84.8712,38.9017],[-84.9311,38.901],[-85.1403,38.9032],[-85.1358,38.9296],[-85.2028,38.9285],[-85.2032,38.9138]]]},"properties":{"GEOID":"18155","NAME":"Switzerland","ASD_CODE":"1890","ASD_NAME":"Southeast","SLUG":"switzerland"}},
{"type":"Feature","geometry":{"type":"Polygon","coordinates":[[[-87.0954,40.5629],[-87.0937,40.4757],[-87.0921,40.3666],[-87.0926,40.2148],[-86.6956,40.2144],[-86.6947,40.4322],[-86.6954,40.5619],[-86.7713,40.5621],[-86.9249,40.5616],[-87.0954,40.5629]]]},"properties":{"GEOID":"18157","NAME":"Tippecanoe","ASD_CODE":"1840","ASD_NAME":"West Central","SLUG":"tippecanoe"}},
{"type":"Feature","geometry":{"type":"Polygon","coordinates":[[[-86.243,40.3737],[-86.2427,40.2158],[-85.8619,40.2189],[-85.8602,40.3057],[-85.8623,40.3784],[-85.8621,40.4069],[-86.2428,40.4029],[-86.243,40.3737]]]},"properties":{"GEOID":"18159","NAME":"Tipton","ASD_CODE":"1850","ASD_NAME":"Central","SLUG":"tipton"}},
{"type":"Feature","geometry":{"type":"Polygon","coordinates":[[[-85.0346,39.7148],[-85.0361,39.5262],[-84.8154,39.522],[-84.8144,39.7266],[-84.9695,39.7268],[-85.0344,39.7293],[-85.0346,39.7148]]]},"properties":{"GEOID":"18161","NAME":"Union","ASD_CODE":"1860","ASD_NAME":"East Central","SLUG":"union"}},
{"type":"Feature","geometry":{"type":"Polygon","coordinates":[[[-87.6884,38.1684],[-87.6968,38.1248],[-87.7007,37.8978],[-87.6791,37.903],[-87.6668,37.8799],[-87.6816,37.8559],[-87.6724,37.8291],[-87.6459,37.8259],[-87.6154,37.832],[-87.5903,37.8586],[-87.5871,37.8849],[-87.6208,37.9077],[-87.6279,37.9223],[-87.6056,37.9501],[-87.6016,37.9713],[-87.5757,37.9678],[-87.5721,37.9466],[-87.5513,37.9254],[-87.5115,37.9064],[-87.4969,37.9112],[-87.4512,37.9411],[-87.4499,38.0352],[-87.473,38.0351],[-87.4721,38.1217],[-87.4673,38.1654],[-87.6884,38.1684]]]},"properties":{"GEOID":"18163","NAME":"Vanderburgh","ASD_CODE":"1870","ASD_NAME":"Southwest","SLUG":"vanderburgh"}},
{"type":"Feature","geometry":{"type":"Polygon","coordinates":[[[-87.5315,40.1481],[-87.5333,39.872],[-87.5322,39.6073],[-87.3824,39.6079],[-87.3943,39.6587],[-87.3815,39.6934],[-87.3844,39.7186],[-87.3772,39.7461],[-87.3746,39.7924],[-87.3855,39.8334],[-87.3664,39.8429],[-87.3561,39.8647],[-87.3769,39.8735],[-87.3689,39.8905],[-87.3799,39.904],[-87.405,39.9109],[-87.4337,39.9352],[-87.4202,39.9525],[-87.4305,39.971],[-87.4349,40.0264],[-87.4174,40.0587],[-87.4067,40.1275],[-87.4904,40.1274],[-87.4905,40.1484],[-87.5315,40.1481]]]},"properties":{"GEOID":"18165","NAME":"Vermillion","ASD_CODE":"1840","ASD_NAME":"West Central","SLUG":"vermillion"}},
{"type":"Feature","geometry":{"type":"Polygon","coordinates":[[[-87.5322,39.6073],[-87.5316,39.3481],[-87.5891,39.3338],[-87.6059,39.3111],[-87.6041,39.2595],[-87.2404,39.2591],[-87.239,39.5206],[-87.2001,39.5199],[-87.199,39.6071],[-87.3824,39.6079],[-87.5322,39.6073]]]},"properties":{"GEOID":"18167","NAME":"Vigo","ASD_CODE":"1840","ASD_NAME":"West Central","SLUG":"vigo"}},
{"type":"Feature","geometry":{"type":"Polygon","coordinates":[[[-85.9464,40.9992],[-85.9423,40.8235],[-85.9395,40.651],[-85.8648,40.6517],[-85.6386,40.6531],[-85.6438,41.0023],[-85.6832,41.0019],[-85.6842,41.0467],[-85.7958,41.0436],[-85.9456,41.0429],[-85.9464,40.9992]]]},"properties":{"GEOID":"18169","NAME":"Wabash","ASD_CODE":"1820","ASD_NAME":"North Central","SLUG":"wabash"}},
{"type":"Feature","geometry":{"type":"Polygon","coordinates":[[[-87.5266,40.4769],[-87.5315,40.1481],[-87.4905,40.1484],[-87.4904,40.1274],[-87.4067,40.1275],[-87.4073,40.1422],[-87.4388,40.1657],[-87.4199,40.1923],[-87.3584,40.2105],[-87.2964,40.2555],[-87.2814,40.2784],[-87.2449,40.3093],[-87.1701,40.3348],[-87.1315,40.3406],[-87.0921,40.3666],[-87.0937,40.4757],[-87.2069,40.4757],[-87.5266,40.4769]]]},"properties":{"GEOID":"18171","NAME":"Warren","ASD_CODE":"1840","ASD_NAME":"West Central","SLUG":"warren"}},
{"type":"Feature","geometry":{"type":"Polygon","coordinates":[[[-87.4673,38.1654],[-87.4721,38.1217],[-87.473,38.0351],[-87.4499,38.0352],[-87.4512,37.9411],[-87.4133,37.9447],[-87.3854,37.9377],[-87.3449,37.9112],[-87.3198,37.9055],[-87.269,37.878],[-87.2679,37.9252],[-87.2257,37.9717],[-87.1858,37.9965],[-87.1685,38.0185],[-87.1528,38.0236],[-87.1479,38.059],[-87.1243,38.0439],[-87.0979,38.0593],[-87.0752,38.0964],[-87.0703,38.1181],[-87.0175,38.1183],[-87.0175,38.2036],[-87.0731,38.2038],[-87.0731,38.2326],[-87.2329,38.2309],[-87.2984,38.2317],[-87.3169,38.2461],[-87.317,38.2018],[-87.4667,38.2013],[-87.4673,38.1654]]]},"properties":{"GEOID":"18173","NAME":"Warrick","ASD_CODE":"1870","ASD_NAME":"Southwest","SLUG":"warrick"}},
{"type":"Feature","geometry":{"type":"Polygon","coordinates":[[[-86.2753,38.7638],[-86.2921,38.7351],[-86.3096,38.7307],[-86.3087,38.6881],[-86.3078,38.6716],[-86.3087,38.4229],[-86.255,38.4227],[-86.0328,38.4179],[-85.9946,38.4183],[-85.9933,38.4885],[-85.9562,38.489],[-85.9571,38.5019],[-85.8848,38.5035],[-85.8663,38.5184],[-85.8663,38.5471],[-85.8479,38.5613],[-85.8486,38.5763],[-85.8856,38.5754],[-85.8883,38.7344],[-85.9609,38.7642],[-85.9766,38.7524],[-85.9978,38.7609],[-86.0406,38.7609],[-86.0602,38.7771],[-86.1349,38.7624],[-86.1855,38.7829],[-86.2241,38.7791],[-86.2432,38.7656],[-86.2753,38.7638]]]},"properties":{"GEOID":"18175","NAME":"Washington","ASD_CODE":"1880","ASD_NAME":"South Central","SLUG":"washington"}},
{"type":"Feature","geometry":{"type":"Polygon","coordinates":[[[-85.2015,40.0045],[-85.2009,39.8738],[-85.2207,39.8736],[-85.2211,39.7884],[-85.1835,39.7884],[-85.1851,39.7155],[-85.0346,39.7148],[-85.0344,39.7293],[-84.9695,39.7268],[-84.8144,39.7266],[-84.8142,39.8137],[-84.8109,40.0051],[-84.8928,40.0064],[-85.1268,40.0042],[-85.2015,40.0045]]]},"properties":{"GEOID":"18177","NAME":"Wayne","ASD_CODE":"1860","ASD_NAME":"East Central","SLUG":"wayne"}},
{"type":"Feature","geometry":{"type":"Polygon","coordinates":[[[-85.4488,40.6536],[-85.447,40.5669],[-85.2011,40.5672],[-85.0685,40.5682],[-85.0703,40.7431],[-85.0739,40.9178],[-85.336,40.9171],[-85.3347,40.6544],[-85.4488,40.6536]]]},"properties":{"GEOID":"18179","NAME":"Wells","ASD_CODE":"1830","ASD_NAME":"Northeast","SLUG":"wells"}},
{"type":"Feature","geometry":{"type":"Polygon","coordinates":[[[-86.9308,40.9124],[-86.9874,40.9122],[-86.9864,40.8379],[-87.0998,40.8376],[-87.0984,40.7365],[-87.0954,40.5629],[-86.9249,40.5616],[-86.7713,40.5621],[-86.7742,40.664],[-86.7583,40.6643],[-86.7614,40.6979],[-86.7475,40.718],[-86.7478,40.7375],[-86.5817,40.7358],[-86.5815,40.9109],[-86.6967,40.9122],[-86.9308,40.9124]]]},"properties":{"GEOID":"18181","NAME":"White","ASD_CODE":"1810","ASD_NAME":"Northwest","SLUG":"white"}},
{"type":"Feature","geometry":{"type":"Polygon","coordinates":[[[-85.6519,41.2948],[-85.6527,41.1785],[-85.6866,41.1784],[-85.6842,41.0467],[-85.6832,41.0019],[-85.6438,41.0023],[-85.4521,41.0052],[-85.3356,41.0052],[-85.3383,41.1791],[-85.3098,41.1789],[-85.3078,41.2642],[-85.5372,41.2662],[-85.5363,41.2952],[-85.6519,41.2948]]]},"properties":{"GEOID":"18183","NAME":"Whitley","ASD_CODE":"1830","ASD_NAME":"Northeast","SLUG":"whitley"}}
]}