{"type":"FeatureCollection", "features": [
{"type":"Feature","geometry":{"type":"Polygon","coordinates":[[[-84.8029,40.9226],[-84.8036,41.2709],[-84.8047,41.5301],[-84.8059,41.7602],[-84.9728,41.7594],[-85.1968,41.7597],[-85.6598,41.7591],[-85.6547,41.5233],[-85.6535,41.4369],[-85.6519,41.2948],[-85.6527,41.1785],[-85.6866,41.1784],[-85.6842,41.0467],[-85.6832,41.0019],[-85.6438,41.0023],[-85.6386,40.6531],[-85.4488,40.6536],[-85.447,40.5669],[-85.2011,40.5672],[-85.0685,40.5682],[-84.8025,40.5722],[-84.8029,40.9226]]]},"properties":{"ASD_NAME":"Northeast","ASD_CODE":"1830","SLUG":"northeast"}},
{"type":"Feature","geometry":{"type":"Polygon","coordinates":[[[-85.6868,39.1309],[-85.5663,39.1328],[-85.4401,39.1956],[-85.2965,39.2683],[-85.2976,39.4533],[-85.2981,39.5255],[-85.3016,39.7876],[-85.5969,39.7865],[-85.5967,39.8729],[-85.5768,39.8728],[-85.5762,39.9458],[-85.5762,40.0771],[-85.5759,40.2482],[-85.5786,40.3795],[-85.4443,40.3791],[-85.447,40.5669],[-85.4488,40.6536],[-85.6386,40.6531],[-85.8648,40.6517],[-85.8636,40.5655],[-86.165,40.5626],[-86.3744,40.5614],[-86.3758,40.4319],[-86.4685,40.431],[-86.6947,40.4322],[-86.6956,40.2144],[-86.6958,40.1787],[-86.6951,39.9228],[-86.6951,39.8648],[-86.6868,39.8648],[-86.6874,39.6304],[-86.6417,39.63],[-86.6566,39.6014],[-86.6596,39.5792],[-86.6513,39.552],[-86.6876,39.5219],[-86.6857,39.4701],[-86.6322,39.4702],[-86.6308,39.3469],[-86.6308,39.3408],[-86.4651,39.3383],[-86.3814,39.3398],[-86.2517,39.3417],[-86.0856,39.3442],[-86.0818,39.2263],[-86.079,39.0796],[-86.0803,39.0503],[-86.0798,39.0359],[-85.8606,39.0409],[-85.8474,39.0595],[-85.8229,39.0697],[-85.7988,39.0685],[-85.7998,39.1289],[-85.6868,39.1309]]]},"properties":{"ASD_NAME":"Central","ASD_CODE":"1850","SLUG":"central"}},
{"type":"Feature","geometry":{"type":"Polygon","coordinates":[[[-87.0954,40.5629],[-86.9249,40.5616],[-86.7713,40.5621],[-86.7742,40.664],[-86.7583,40.6643],[-86.7614,40.6979],[-86.7475,40.718],[-86.7478,40.7375],[-86.5817,40.7358],[-86.5815,40.9109],[-86.4685,40.9099],[-86.467,41.1714],[-86.4666,41.433],[-86.5247,41.4329],[-86.5249,41.5197],[-86.5036,41.5195],[-86.4982,41.5611],[-86.4864,41.5705],[-86.4876,41.6493],[-86.5267,41.6504],[-86.5242,41.7595],[-86.8248,41.7602],[-86.9091,41.7269],[-86.9327,41.7095],[-87.0279,41.6747],[-87.099,41.6518],[-87.1581,41.6416],[-87.1621,41.6354],[-87.2226,41.6242],[-87.2888,41.6208],[-87.3689,41.63],[-87.4115,41.6437],[-87.4212,41.6595],[-87.4079,41.6803],[-87.4249,41.6901],[-87.4763,41.6752],[-87.5242,41.7083],[-87.5267,41.2982],[-87.5266,41.1661],[-87.5258,40.8536],[-87.526,40.7369],[-87.5266,40.4769],[-87.2069,40.4757],[-87.0937,40.4757],[-87.0954,40.5629]]]},"properties":{"ASD_NAME":"Northwest","ASD_CODE":"1810","SLUG":"northwest"}},
{"type":"Feature","geometry":{"type":"Polygon","coordinates":[[[-85.447,40.5669],[-85.4443,40.3791],[-85.5786,40.3795],[-85.5759,40.2482],[-85.5762,40.0771],[-85.5762,39.9458],[-85.5768,39.8728],[-85.5967,39.8729],[-85.5969,39.7865],[-85.3016,39.7876],[-85.2981,39.5255],[-85.0361,39.5262],[-84.8154,39.522],[-84.8144,39.7266],[-84.8142,39.8137],[-84.8109,40.0051],[-84.8037,40.3101],[-84.8041,40.413],[-84.8025,40.5722],[-85.0685,40.5682],[-85.2011,40.5672],[-85.447,40.5669]]]},"properties":{"ASD_NAME":"East Central","ASD_CODE":"1860","SLUG":"east_central"}},
{"type":"Feature","geometry":{"type":"Polygon","coordinates":[[[-86.0856,39.3442],[-86.2517,39.3417],[-86.3814,39.3398],[-86.4651,39.3383],[-86.6308,39.3408],[-86.6308,39.3469],[-86.6495,39.3555],[-86.6677,39.3295],[-86.6856,39.336],[-86.683,39.1657],[-86.6823,38.9924],[-86.6829,38.9047],[-86.6831,38.6866],[-86.6824,38.5264],[-86.6814,38.3948],[-86.6795,38.2631],[-86.679,38.2481],[-86.7922,38.2491],[-86.7915,38.2051],[-86.7913,38.1801],[-86.8004,38.1396],[-86.7878,38.1047],[-86.7681,38.1001],[-86.7808,38.0784],[-86.7674,38.0569],[-86.7788,38.0501],[-86.7723,37.9983],[-86.8135,37.9982],[-86.7955,37.9895],[-86.7799,37.9555],[-86.751,37.9129],[-86.7185,37.8931],[-86.686,37.9131],[-86.6501,37.9106],[-86.6448,37.8948],[-86.6625,37.857],[-86.6383,37.8427],[-86.5981,37.8674],[-86.5998,37.9068],[-86.5886,37.9212],[-86.5342,37.917],[-86.507,37.9364],[-86.5252,37.9682],[-86.525,38.0279],[-86.5173,38.0426],[-86.4522,38.0505],[-86.4328,38.0672],[-86.434,38.0868],[-86.4588,38.096],[-86.461,38.1212],[-86.4295,38.1253],[-86.4051,38.1058],[-86.3753,38.1306],[-86.3406,38.1277],[-86.328,38.1548],[-86.3661,38.1615],[-86.3774,38.1714],[-86.3738,38.1934],[-86.3577,38.1988],[-86.3297,38.1817],[-86.2871,38.1579],[-86.2703,38.1298],[-86.2791,38.1008],[-86.2672,38.0568],[-86.2207,38.0282],[-86.1766,38.0102],[-86.1283,38.0162],[-86.0794,38.0006],[-86.05,37.9605],[-86.0344,37.9646],[-86.0256,37.9945],[-85.9471,38.0051],[-85.9257,38.0218],[-85.9053,38.0889],[-85.908,38.1615],[-85.8995,38.1804],[-85.8803,38.2034],[-85.8524,38.2219],[-85.8391,38.2397],[-85.8362,38.2653],[-85.8174,38.2824],[-85.7911,38.2878],[-85.7941,38.3248],[-85.7815,38.3419],[-85.7611,38.3504],[-85.8077,38.4043],[-85.9667,38.4037],[-85.9946,38.4183],[-85.9933,38.4885],[-85.9562,38.489],[-85.9571,38.5019],[-85.8848,38.5035],[-85.8663,38.5184],[-85.8663,38.5471],[-85.8479,38.5613],[-85.8486,38.5763],[-85.8856,38.5754],[-85.8883,38.7344],[-85.8665,38.7293],[-85.8416,38.7411],[-85.8304,38.7626],[-85.7954,38.8075],[-85.7988,39.0685],[-85.8229,39.0697],[-85.8474,39.0595],[-85.8606,39.0409],[-86.0798,39.0359],[-86.0803,39.0503],[-86.079,39.0796],[-86.0818,39.2263],[-86.0856,39.3442]]]},"properties":{"ASD_NAME":"South Central","ASD_CODE":"1880","SLUG":"south_central"}},
{"type":"Feature","geometry":{"type":"Polygon","coordinates":[[[-86.3744,40.5614],[-86.165,40.5626],[-85.8636,40.5655],[-85.8648,40.6517],[-85.6386,40.6531],[-85.6438,41.0023],[-85.6832,41.0019],[-85.6842,41.0467],[-85.6866,41.1784],[-85.6527,41.1785],[-85.6519,41.2948],[-85.6535,41.4369],[-85.6547,41.5233],[-85.6598,41.7591],[-85.7914,41.7591],[-86.0626,41.7605],[-86.5242,41.7595],[-86.5267,41.6504],[-86.4876,41.6493],[-86.4864,41.5705],[-86.4982,41.5611],[-86.5036,41.5195],[-86.5249,41.5197],[-86.5247,41.4329],[-86.4666,41.433],[-86.467,41.1714],[-86.4685,40.9099],[-86.5815,40.9109],[-86.5817,40.7358],[-86.7478,40.7375],[-86.7475,40.718],[-86.7614,40.6979],[-86.7583,40.6643],[-86.7742,40.664],[-86.7713,40.5621],[-86.6954,40.5619],[-86.6947,40.4322],[-86.4685,40.431],[-86.3758,40.4319],[-86.3744,40.5614]]]},"properties":{"ASD_NAME":"North Central","ASD_CODE":"1820","SLUG":"north_central"}},
{"type":"Feature","geometry":{"type":"Polygon","coordinates":[[[-85.4286,38.5864],[-85.4397,38.6115],[-85.4387,38.6593],[-85.4555,38.6821],[-85.4524,38.7082],[-85.4363,38.7285],[-85.4102,38.7371],[-85.3723,38.7305],[-85.3053,38.7415],[-85.2685,38.7402],[-85.2465,38.7318],[-85.2262,38.7059],[-85.2015,38.6911],[-85.173,38.688],[-85.1367,38.7002],[-85.0719,38.7416],[-84.9919,38.7785],[-84.933,38.7775],[-84.8873,38.7948],[-84.8378,38.7849],[-84.8116,38.7928],[-84.8271,38.8186],[-84.8234,38.8392],[-84.7883,38.8643],[-84.8002,38.8911],[-84.8712,38.9017],[-84.8708,38.9292],[-84.8352,38.958],[-84.8371,38.9881],[-84.8774,39.0316],[-84.8967,39.0533],[-84.8889,39.0664],[-84.8607,39.0781],[-84.8202,39.1055],[-84.8195,39.3052],[-84.8154,39.522],[-85.0361,39.5262],[-85.2981,39.5255],[-85.2976,39.4533],[-85.2965,39.2683],[-85.4401,39.1956],[-85.5663,39.1328],[-85.6868,39.1309],[-85.7998,39.1289],[-85.7988,39.0685],[-85.7954,38.8075],[-85.8304,38.7626],[-85.8416,38.7411],[-85.8665,38.7293],[-85.8883,38.7344],[-85.8856,38.5754],[-85.8486,38.5763],[-85.8479,38.5613],[-85.8663,38.5471],[-85.8663,38.5184],[-85.8848,38.5035],[-85.9571,38.5019],[-85.9562,38.489],[-85.9933,38.4885],[-85.9946,38.4183],[-85.9667,38.4037],[-85.8077,38.4043],[-85.7611,38.3504],[-85.7815,38.3419],[-85.7941,38.3248],[-85.7911,38.2878],[-85.7409,38.2679],[-85.6836,38.2955],[-85.6554,38.3238],[-85.6387,38.3639],[-85.6329,38.3957],[-85.6183,38.4264],[-85.586,38.4501],[-85.5248,38.4576],[-85.4989,38.4682],[-85.4669,38.5108],[-85.4224,38.5329],[-85.4158,38.5636],[-85.4286,38.5864]]]},"properties":{"ASD_NAME":"Southeast","ASD_CODE":"1890","SLUG":"southeast"}},
{"type":"Feature","geometry":{"type":"Polygon","coordinates":[[[-87.0546,39.1681],[-86.8931,39.1679],[-86.683,39.1657],[-86.6856,39.336],[-86.6677,39.3295],[-86.6495,39.3555],[-86.6308,39.3469],[-86.6322,39.4702],[-86.6857,39.4701],[-86.6876,39.5219],[-86.6513,39.552],[-86.6596,39.5792],[-86.6566,39.6014],[-86.6417,39.63],[-86.6874,39.6304],[-86.6868,39.8648],[-86.6951,39.8648],[-86.6951,39.9228],[-86.6958,40.1787],[-86.6956,40.2144],[-86.6947,40.4322],[-86.6954,40.5619],[-86.7713,40.5621],[-86.9249,40.5616],[-87.0954,40.5629],[-87.0937,40.4757],[-87.2069,40.4757],[-87.5266,40.4769],[-87.5315,40.1481],[-87.5333,39.872],[-87.5322,39.6073],[-87.5316,39.3481],[-87.5891,39.3338],[-87.6059,39.3111],[-87.6041,39.2595],[-87.2404,39.2591],[-87.2407,39.1718],[-87.0546,39.1681]]]},"properties":{"ASD_NAME":"West Central","ASD_CODE":"1840","SLUG":"west_central"}},
{"type":"Feature","geometry":{"type":"Polygon","coordinates":[[[-86.6814,38.3948],[-86.6824,38.5264],[-86.6831,38.6866],[-86.6829,38.9047],[-86.6823,38.9924],[-86.683,39.1657],[-86.8931,39.1679],[-87.0546,39.1681],[-87.2407,39.1718],[-87.2404,39.2591],[-87.6041,39.2595],[-87.5807,39.2552],[-87.5746,39.2184],[-87.5866,39.1996],[-87.6194,39.1721],[-87.6365,39.1688],[-87.6587,39.136],[-87.6431,39.1286],[-87.6528,39.1068],[-87.6184,39.1043],[-87.6011,39.0814],[-87.5726,39.0573],[-87.5802,39.0419],[-87.5699,39.0231],[-87.5765,38.9867],[-87.5295,38.9719],[-87.5133,38.956],[-87.5261,38.9214],[-87.5225,38.9024],[-87.5443,38.889],[-87.5426,38.8666],[-87.5259,38.8488],[-87.5273,38.8181],[-87.4959,38.7854],[-87.5053,38.735],[-87.5312,38.684],[-87.5972,38.6653],[-87.6273,38.6054],[-87.6229,38.5862],[-87.6692,38.5417],[-87.6453,38.5102],[-87.6724,38.5074],[-87.6859,38.4918],[-87.714,38.4799],[-87.7446,38.4773],[-87.7559,38.4559],[-87.732,38.4508],[-87.7437,38.4144],[-87.7831,38.3689],[-87.8061,38.3631],[-87.832,38.327],[-87.831,38.2994],[-87.8434,38.2782],[-87.8878,38.2853],[-87.9068,38.2696],[-87.9336,38.2959],[-87.9503,38.2768],[-87.9602,38.2371],[-87.9837,38.2304],[-87.984,38.2091],[-87.9699,38.1918],[-87.9405,38.1749],[-87.9106,38.1666],[-87.9455,38.1266],[-87.9695,38.1307],[-87.9753,38.1101],[-88.0167,38.0973],[-88.0047,38.084],[-87.9605,38.0991],[-87.9672,38.0671],[-88.0013,38.0515],[-88.0326,38.0517],[-88.0341,38.032],[-88.0169,38.024],[-88.0258,38.0072],[-88.0126,37.9771],[-88.0368,37.9568],[-88.0304,37.9301],[-88.0134,37.8949],[-88.0554,37.8912],[-88.0862,37.9057],[-88.095,37.8937],[-88.0785,37.8791],[-88.0594,37.8487],[-88.0333,37.8419],[-88.033,37.8244],[-88.0581,37.8224],[-88.0857,37.8294],[-88.09,37.8168],[-88.0597,37.8012],[-88.0376,37.8099],[-87.9445,37.7753],[-87.9349,37.7952],[-87.9068,37.8076],[-87.9149,37.8496],[-87.9362,37.8679],[-87.9384,37.8908],[-87.9048,37.9249],[-87.8725,37.921],[-87.8298,37.8764],[-87.7864,37.8766],[-87.7626,37.8907],[-87.7007,37.8978],[-87.6791,37.903],[-87.6668,37.8799],[-87.6816,37.8559],[-87.6724,37.8291],[-87.6459,37.8259],[-87.6154,37.832],[-87.5903,37.8586],[-87.5871,37.8849],[-87.6208,37.9077],[-87.6279,37.9223],[-87.6056,37.9501],[-87.6016,37.9713],[-87.5757,37.9678],[-87.5721,37.9466],[-87.5513,37.9254],[-87.5115,37.9064],[-87.4969,37.9112],[-87.4512,37.9411],[-87.4133,37.9447],[-87.3854,37.9377],[-87.3449,37.9112],[-87.3198,37.9055],[-87.269,37.878],[-87.2203,37.8491],[-87.1647,37.8414],[-87.1415,37.8163],[-87.1296,37.7866],[-87.096,37.7853],[-87.0697,37.8015],[-87.0433,37.8686],[-87.0452,37.8943],[-87.0124,37.9187],[-86.979,37.9302],[-86.9258,37.9351],[-86.902,37.9464],[-86.856,37.9873],[-86.8135,37.9982],[-86.7723,37.9983],[-86.7788,38.0501],[-86.7674,38.0569],[-86.7808,38.0784],[-86.7681,38.1001],[-86.7878,38.1047],[-86.8004,38.1396],[-86.7913,38.1801],[-86.7915,38.2051],[-86.7922,38.2491],[-86.679,38.2481],[-86.6795,38.2631],[-86.6814,38.3948]]]},"properties":{"ASD_NAME":"Southwest","ASD_CODE":"1870","SLUG":"southwest"}}
]}